{"fetched_at":"2026-03-30T06:02:59Z","count":15439,"tles":[{"name":"STARLINK-5169","line1":"1 54060U 22136K   26087.86032388  .00000313  00000+0  37754-4 0  9996","line2":"2 54060  53.2160 227.7183 0001180  86.3572 273.7555 15.08840765190160","category":"Starlink"}]}