{
  "norad_id": 54060,
  "name": "STARLINK-5169",
  "history": [
    {
      "epoch": "2026-03-28T20:38:51.983232Z",
      "apogee_km": 540.5573602761133,
      "perigee_km": 538.9247410561566,
      "latitude_deg": -3.638415057240357e-06,
      "longitude_deg": 91.7269906732755,
      "height_km": 540.5849952576771,
      "semi_major_axis_km": 6917.878050666134,
      "eccentricity": 0.000118,
      "inclination_deg": 53.216,
      "raan_deg": 227.7183,
      "arg_perigee_deg": 86.3572,
      "mean_anomaly_deg": 273.7555,
      "mean_motion_rev_day": 15.08840765
    }
  ]
}